{
  "type": "FeatureCollection",
  "features": [
    {
      "type": "Feature",
      "properties": {
        "OBJECT_NAME": "STARLINK-34964",
        "OBJECT_ID": "2025-179E",
        "EPOCH": "2025-11-30T01:39:53.981856",
        "MEAN_MOTION": 15.0565459,
        "ECCENTRICITY": 2.5e-05,
        "INCLINATION": 97.6058,
        "RA_OF_ASC_NODE": 14.689,
        "ARG_OF_PERICENTER": 118.2636,
        "MEAN_ANOMALY": 241.8616,
        "EPHEMERIS_TYPE": 0,
        "CLASSIFICATION_TYPE": "U",
        "NORAD_CAT_ID": 65239,
        "ELEMENT_SET_NO": 999,
        "REV_AT_EPOCH": 1682,
        "BSTAR": 0.00026218,
        "MEAN_MOTION_DOT": 3.725e-05,
        "MEAN_MOTION_DDOT": 0,
        "norad_id": 65239,
        "name": "STARLINK-34964",
        "group": "active",
        "longitude_deg": NaN,
        "latitude_deg": NaN,
        "alt_km": NaN,
        "orbit_class": "HEO",
        "timestamp": "2025-11-30T09:33:02.584964+00:00"
      },
      "geometry": {
        "type": "Point",
        "coordinates": [
          NaN,
          NaN
        ]
      }
    },
    {
      "type": "Feature",
      "properties": {
        "OBJECT_NAME": "STARLINK-34953",
        "OBJECT_ID": "2025-179F",
        "EPOCH": "2025-11-30T02:47:41.928000",
        "MEAN_MOTION": 15.05652216,
        "ECCENTRICITY": 0.0001551,
        "INCLINATION": 97.6059,
        "RA_OF_ASC_NODE": 14.7814,
        "ARG_OF_PERICENTER": 91.9838,
        "MEAN_ANOMALY": 268.1566,
        "EPHEMERIS_TYPE": 0,
        "CLASSIFICATION_TYPE": "U",
        "NORAD_CAT_ID": 65240,
        "ELEMENT_SET_NO": 999,
        "REV_AT_EPOCH": 1699,
        "BSTAR": 0.00023835,
        "MEAN_MOTION_DOT": 3.38e-05,
        "MEAN_MOTION_DDOT": 0,
        "norad_id": 65240,
        "name": "STARLINK-34953",
        "group": "active",
        "longitude_deg": NaN,
        "latitude_deg": NaN,
        "alt_km": NaN,
        "orbit_class": "HEO",
        "timestamp": "2025-11-30T09:33:02.584970+00:00"
      },
      "geometry": {
        "type": "Point",
        "coordinates": [
          NaN,
          NaN
        ]
      }
    },
    {
      "type": "Feature",
      "properties": {
        "OBJECT_NAME": "STARLINK-34969",
        "OBJECT_ID": "2025-179G",
        "EPOCH": "2025-11-30T02:27:46.012032",
        "MEAN_MOTION": 15.05648708,
        "ECCENTRICITY": 0.000164,
        "INCLINATION": 97.6046,
        "RA_OF_ASC_NODE": 14.8006,
        "ARG_OF_PERICENTER": 92.572,
        "MEAN_ANOMALY": 267.5695,
        "EPHEMERIS_TYPE": 0,
        "CLASSIFICATION_TYPE": "U",
        "NORAD_CAT_ID": 65241,
        "ELEMENT_SET_NO": 999,
        "REV_AT_EPOCH": 1683,
        "BSTAR": 0.00012729,
        "MEAN_MOTION_DOT": 1.776e-05,
        "MEAN_MOTION_DDOT": 0,
        "norad_id": 65241,
        "name": "STARLINK-34969",
        "group": "active",
        "longitude_deg": NaN,
        "latitude_deg": NaN,
        "alt_km": NaN,
        "orbit_class": "HEO",
        "timestamp": "2025-11-30T09:33:02.584978+00:00"
      },
      "geometry": {
        "type": "Point",
        "coordinates": [
          NaN,
          NaN
        ]
      }
    },
    {
      "type": "Feature",
      "properties": {
        "OBJECT_NAME": "STARLINK-34963",
        "OBJECT_ID": "2025-179H",
        "EPOCH": "2025-11-30T01:59:51.050400",
        "MEAN_MOTION": 15.05657373,
        "ECCENTRICITY": 9.48e-05,
        "INCLINATION": 97.604,
        "RA_OF_ASC_NODE": 14.8285,
        "ARG_OF_PERICENTER": 159.2645,
        "MEAN_ANOMALY": 200.862,
        "EPHEMERIS_TYPE": 0,
        "CLASSIFICATION_TYPE": "U",
        "NORAD_CAT_ID": 65242,
        "ELEMENT_SET_NO": 999,
        "REV_AT_EPOCH": 1698,
        "BSTAR": 0.0003503,
        "MEAN_MOTION_DOT": 4.998e-05,
        "MEAN_MOTION_DDOT": 0,
        "norad_id": 65242,
        "name": "STARLINK-34963",
        "group": "active",
        "longitude_deg": NaN,
        "latitude_deg": NaN,
        "alt_km": NaN,
        "orbit_class": "HEO",
        "timestamp": "2025-11-30T09:33:02.584984+00:00"
      },
      "geometry": {
        "type": "Point",
        "coordinates": [
          NaN,
          NaN
        ]
      }
    },
    {
      "type": "Feature",
      "properties": {
        "OBJECT_NAME": "STARLINK-34982",
        "OBJECT_ID": "2025-179J",
        "EPOCH": "2025-11-30T02:55:40.139040",
        "MEAN_MOTION": 15.05653222,
        "ECCENTRICITY": 5.04e-05,
        "INCLINATION": 97.6065,
        "RA_OF_ASC_NODE": 14.7741,
        "ARG_OF_PERICENTER": 128.2107,
        "MEAN_ANOMALY": 231.9165,
        "EPHEMERIS_TYPE": 0,
        "CLASSIFICATION_TYPE": "U",
        "NORAD_CAT_ID": 65243,
        "ELEMENT_SET_NO": 999,
        "REV_AT_EPOCH": 1699,
        "BSTAR": 0.00025637,
        "MEAN_MOTION_DOT": 3.641e-05,
        "MEAN_MOTION_DDOT": 0,
        "norad_id": 65243,
        "name": "STARLINK-34982",
        "group": "active",
        "longitude_deg": NaN,
        "latitude_deg": NaN,
        "alt_km": NaN,
        "orbit_class": "HEO",
        "timestamp": "2025-11-30T09:33:02.584990+00:00"
      },
      "geometry": {
        "type": "Point",
        "coordinates": [
          NaN,
          NaN
        ]
      }
    },
    {
      "type": "Feature",
      "properties": {
        "OBJECT_NAME": "STARLINK-34990",
        "OBJECT_ID": "2025-179K",
        "EPOCH": "2025-11-29T02:24:18.747072",
        "MEAN_MOTION": 15.05664935,
        "ECCENTRICITY": 0.00016025,
        "INCLINATION": 97.6043,
        "RA_OF_ASC_NODE": 13.8255,
        "ARG_OF_PERICENTER": 91.5003,
        "MEAN_ANOMALY": 268.6407,
        "EPHEMERIS_TYPE": 0,
        "CLASSIFICATION_TYPE": "U",
        "NORAD_CAT_ID": 65244,
        "ELEMENT_SET_NO": 999,
        "REV_AT_EPOCH": 1674,
        "BSTAR": 0.00042333942,
        "MEAN_MOTION_DOT": 6.055e-05,
        "MEAN_MOTION_DDOT": 0,
        "norad_id": 65244,
        "name": "STARLINK-34990",
        "group": "active",
        "longitude_deg": NaN,
        "latitude_deg": NaN,
        "alt_km": NaN,
        "orbit_class": "HEO",
        "timestamp": "2025-11-30T09:33:02.584996+00:00"
      },
      "geometry": {
        "type": "Point",
        "coordinates": [
          NaN,
          NaN
        ]
      }
    },
    {
      "type": "Feature",
      "properties": {
        "OBJECT_NAME": "STARLINK-34977",
        "OBJECT_ID": "2025-179L",
        "EPOCH": "2025-11-30T02:43:42.206880",
        "MEAN_MOTION": 15.05637581,
        "ECCENTRICITY": 0.0002209,
        "INCLINATION": 97.605,
        "RA_OF_ASC_NODE": 14.7857,
        "ARG_OF_PERICENTER": 69.9462,
        "MEAN_ANOMALY": 290.2002,
        "EPHEMERIS_TYPE": 0,
        "CLASSIFICATION_TYPE": "U",
        "NORAD_CAT_ID": 65245,
        "ELEMENT_SET_NO": 999,
        "REV_AT_EPOCH": 1680,
        "BSTAR": 0.00043059,
        "MEAN_MOTION_DOT": 6.156e-05,
        "MEAN_MOTION_DDOT": 0,
        "norad_id": 65245,
        "name": "STARLINK-34977",
        "group": "active",
        "longitude_deg": NaN,
        "latitude_deg": NaN,
        "alt_km": NaN,
        "orbit_class": "HEO",
        "timestamp": "2025-11-30T09:33:02.585005+00:00"
      },
      "geometry": {
        "type": "Point",
        "coordinates": [
          NaN,
          NaN
        ]
      }
    },
    {
      "type": "Feature",
      "properties": {
        "OBJECT_NAME": "STARLINK-34959",
        "OBJECT_ID": "2025-179M",
        "EPOCH": "2025-11-30T01:43:53.327136",
        "MEAN_MOTION": 15.05654072,
        "ECCENTRICITY": 6.77e-05,
        "INCLINATION": 97.6049,
        "RA_OF_ASC_NODE": 14.6856,
        "ARG_OF_PERICENTER": 94.8971,
        "MEAN_ANOMALY": 265.2333,
        "EPHEMERIS_TYPE": 0,
        "CLASSIFICATION_TYPE": "U",
        "NORAD_CAT_ID": 65246,
        "ELEMENT_SET_NO": 999,
        "REV_AT_EPOCH": 1683,
        "BSTAR": 0.00026996,
        "MEAN_MOTION_DOT": 3.837e-05,
        "MEAN_MOTION_DDOT": 0,
        "norad_id": 65246,
        "name": "STARLINK-34959",
        "group": "active",
        "longitude_deg": NaN,
        "latitude_deg": NaN,
        "alt_km": NaN,
        "orbit_class": "HEO",
        "timestamp": "2025-11-30T09:33:02.585011+00:00"
      },
      "geometry": {
        "type": "Point",
        "coordinates": [
          NaN,
          NaN
        ]
      }
    }
  ]
}