STARLINK-34964          
1 65239U 25179E   25334.06937479  .00003725  00000+0  26218-3 0  9999
2 65239  97.6058  14.6890 0000250 118.2636 241.8616 15.05654590 16829
STARLINK-34953          
1 65240U 25179F   25334.11645750  .00003380  00000+0  23835-3 0  9994
2 65240  97.6059  14.7814 0001551  91.9838 268.1566 15.05652216 16992
STARLINK-34969          
1 65241U 25179G   25334.10261588  .00001776  00000+0  12729-3 0  9994
2 65241  97.6046  14.8006 0001640  92.5720 267.5695 15.05648708 16839
STARLINK-34963          
1 65242U 25179H   25334.08322975  .00004998  00000+0  35030-3 0  9999
2 65242  97.6040  14.8285 0000948 159.2645 200.8620 15.05657373 16982
STARLINK-34982          
1 65243U 25179J   25334.12199235  .00003641  00000+0  25637-3 0  9992
2 65243  97.6065  14.7741 0000504 128.2107 231.9165 15.05653222 16992
STARLINK-34990          
1 65244U 25179K   25333.10021698  .00006055  00000+0  42334-3 0  9992
2 65244  97.6043  13.8255 0001602  91.5003 268.6407 15.05664935 16748
STARLINK-34977          
1 65245U 25179L   25334.11368295  .00006156  00000+0  43059-3 0  9999
2 65245  97.6050  14.7857 0002209  69.9462 290.2002 15.05637581 16803
STARLINK-34959          
1 65246U 25179M   25334.07214499  .00003837  00000+0  26996-3 0  9995
2 65246  97.6049  14.6856 0000677  94.8971 265.2333 15.05654072 16835
